     2.10           G: GLONASS NAV DATA                     RINEX VERSION / TYPE
teqc  2015Jun23                         20211011 01:25:46UTCPGM / RUN BY / DATE
Linux 2.4.21-27.ELsmp|Opteron|gcc -static|Linux x86_64|=+   COMMENT
  2021     9    17   -4.656612873077D-10                    CORR TO SYSTEM TIME
                                                            END OF HEADER
23 21  9 18 13 45  0.0-1.366622745991D-05-0.000000000000D+00 4.860000000000D+04
   -5.142026855469D+03-2.986524581909D+00-2.793967723846D-09 0.000000000000D+00
    1.120578222656D+04 6.773061752319D-01 2.793967723846D-09 3.000000000000D+00
   -2.234117187500D+04 1.026708602905D+00 9.313225746155D-10 0.000000000000D+00
12 21  9 18 13 45  0.0 2.629887312651D-04 3.637978807092D-12 4.863000000000D+04
    3.282656738281D+03-1.678703308105D+00-9.313225746155D-10 0.000000000000D+00
    1.687467529297D+04-1.956779479980D+00-9.313225746155D-10-1.000000000000D+00
    1.887071972656D+04 2.046779632568D+00-2.793967723846D-09 0.000000000000D+00
12 21  9 18 14 15  0.0 2.629943192005D-04 3.637978807092D-12 5.040000000000D+04
   -2.716708984375D+02-2.250102043152D+00-9.313225746155D-10 0.000000000000D+00
    1.332278710938D+04-1.944704055786D+00-0.000000000000D+00-1.000000000000D+00
    2.177981054688D+04 1.164726257324D+00-2.793967723846D-09 0.000000000000D+00
 1 21  9 18 14 15  0.0 8.547212928534D-05 0.000000000000D+00 5.040000000000D+04
   -6.963517089844D+03 2.804174423218D-01-3.725290298462D-09 0.000000000000D+00
    2.362100634766D+04-8.804683685303D-01 3.725290298462D-09 1.000000000000D+00
   -6.678607910156D+03-3.407566070557D+00-9.313225746155D-10 0.000000000000D+00
 2 21  9 18 14 15  0.0 4.937369376421D-04 9.094947017729D-13 5.040000000000D+04
    2.454609375000D+03-2.001695632935D-01-2.793967723846D-09 0.000000000000D+00
    2.151313964844D+04 1.834642410278D+00 0.000000000000D+00-4.000000000000D+00
    1.346826806641D+04-2.907395362854D+00-2.793967723846D-09 0.000000000000D+00
 8 21  9 18 14 15  0.0-6.098300218582D-05-0.000000000000D+00 5.040000000000D+04
   -1.144130761719D+04 5.548543930054D-01-2.793967723846D-09 0.000000000000D+00
    1.239177832031D+04-2.567058563232D+00 3.725290298462D-09 6.000000000000D+00
   -1.907718701172D+04-1.997316360474D+00 9.313225746155D-10 0.000000000000D+00
13 21  9 18 14 15  0.0-6.081443279982D-05-0.000000000000D+00 5.040000000000D+04
    1.427438574219D+04-1.045253753662D+00-1.862645149231D-09 0.000000000000D+00
    1.825320068359D+04-1.029307365417D+00-9.313225746155D-10-2.000000000000D+00
    1.065933300781D+04 3.159487724304D+00-1.862645149231D-09 0.000000000000D+00
23 21  9 18 14 15  0.0-1.366715878248D-05-0.000000000000D+00 5.040000000000D+04
   -1.012082373047D+04-2.503244400024D+00-2.793967723846D-09 0.000000000000D+00
    1.274467968750D+04 1.002727508545D+00 3.725290298462D-09 3.000000000000D+00
   -1.965435644531D+04 1.939290046692D+00 9.313225746155D-10 0.000000000000D+00
22 21  9 18 14 15  0.0-1.339251175523D-04-1.818989403546D-12 5.100000000000D+04
   -2.385418652344D+04-9.371280670166D-02-9.313225746155D-10 0.000000000000D+00
    8.807269042969D+03 2.904338836670D-01 4.656612873077D-09-3.000000000000D+00
   -1.345953613281D+03 3.611171722412D+00-9.313225746155D-10 0.000000000000D+00
 8 21  9 18 14 45  0.0-6.098486483097D-05-0.000000000000D+00 5.220000000000D+04
   -1.074857128906D+04 1.917438507080D-01-9.313225746155D-10 0.000000000000D+00
    7.337273925781D+03-3.004528045654D+00 3.725290298462D-09 6.000000000000D+00
   -2.188432275391D+04-1.101339340210D+00 1.862645149231D-09 0.000000000000D+00
 1 21  9 18 14 45  0.0 8.547306060791D-05 0.000000000000D+00 5.220000000000D+04
   -6.527830566406D+03 1.651277542114D-01-2.793967723846D-09 0.000000000000D+00
    2.127954101562D+04-1.702932357788D+00 4.656612873077D-09 1.000000000000D+00
   -1.247505273438D+04-2.991147994995D+00-0.000000000000D+00 0.000000000000D+00
 2 21  9 18 14 45  0.0 4.937388002872D-04 9.094947017729D-13 5.220000000000D+04
    2.398367187500D+03 1.043519973755D-01-2.793967723846D-09 0.000000000000D+00
    2.415183544922D+04 1.068755149841D+00 1.862645149231D-09-4.000000000000D+00
    7.781212402344D+03-3.370567321777D+00-1.862645149231D-09 0.000000000000D+00
13 21  9 18 14 45  0.0-6.081536412239D-05-0.000000000000D+00 5.220000000000D+04
    1.171799267578D+04-1.789939880371D+00-1.862645149231D-09 0.000000000000D+00
    1.617347998047D+04-1.237128257751D+00-0.000000000000D+00-2.000000000000D+00
    1.586066406250D+04 2.582213401794D+00-1.862645149231D-09 0.000000000000D+00
22 21  9 18 14 45  0.0-1.339297741652D-04-2.728484105319D-12 5.220000000000D+04
   -2.325515185547D+04 7.387952804565D-01-0.000000000000D+00 0.000000000000D+00
    9.011775878906D+03-1.009254455566D-01 3.725290298462D-09-3.000000000000D+00
    5.122020507812D+03 3.528532981873D+00-1.862645149231D-09 0.000000000000D+00
23 21  9 18 14 45  0.0-1.366902142763D-05-0.000000000000D+00 5.220000000000D+04
   -1.402770556641D+04-1.810987472534D+00-1.862645149231D-09 0.000000000000D+00
    1.468528515625D+04 1.112208366394D+00 5.587935447693D-09 3.000000000000D+00
   -1.544976074219D+04 2.702202796936D+00 0.000000000000D+00 0.000000000000D+00
24 21  9 18 14 45  0.0 5.915015935898D-05 1.818989403546D-12 5.223000000000D+04
   -1.828740234375D+02-2.756820678711D+00-1.862645149231D-09 0.000000000000D+00
    1.186666650391D+04 1.406446456909D+00 3.725290298462D-09 2.000000000000D+00
   -2.256783300781D+04 7.591400146484D-01 9.313225746155D-10 0.000000000000D+00
12 21  9 18 14 45  0.0 2.630008384585D-04 3.637978807092D-12 5.235000000000D+04
   -4.714298339844D+03-2.649966239929D+00-0.000000000000D+00 0.000000000000D+00
    1.002214941406D+04-1.686605453491D+00 0.000000000000D+00-1.000000000000D+00
    2.301008349609D+04 1.934785842896D-01-2.793967723846D-09 0.000000000000D+00
 3 21  9 18 14 45  0.0 4.319567233324D-05 9.094947017729D-13 5.352000000000D+04
    9.335191406250D+03-6.124305725098D-02-9.313225746155D-10 0.000000000000D+00
    1.155483593750D+04 2.834807395935D+00-9.313225746155D-10 5.000000000000D+00
    2.075770458984D+04-1.558277130127D+00-1.862645149231D-09 0.000000000000D+00
 1 21  9 18 15 15  0.0 8.547492325306D-05 0.000000000000D+00 5.400000000000D+04
   -6.493403320312D+03-1.561107635498D-01-1.862645149231D-09 0.000000000000D+00
    1.758744384766D+04-2.364557266235D+00 4.656612873077D-09 1.000000000000D+00
   -1.730776416016D+04-2.343701362610D+00 0.000000000000D+00 0.000000000000D+00
 2 21  9 18 15 15  0.0 4.937406629324D-04 0.000000000000D+00 5.400000000000D+04
    2.694901855469D+03 1.846694946289D-01-2.793967723846D-09 0.000000000000D+00
    2.528991552734D+04 1.855955123901D-01 3.725290298462D-09-4.000000000000D+00
    1.491107421875D+03-3.572952270508D+00-1.862645149231D-09 0.000000000000D+00
 3 21  9 18 15 15  0.0 4.319753497839D-05 0.000000000000D+00 5.400000000000D+04
    9.577157714844D+03 3.064804077148D-01-1.862645149231D-09 0.000000000000D+00
    1.624155566406D+04 2.330071449280D+00 0.000000000000D+00 5.000000000000D+00
    1.718785644531D+04-2.382708549500D+00-2.793967723846D-09 0.000000000000D+00
13 21  9 18 15 15  0.0-6.081629544497D-05-0.000000000000D+00 5.400000000000D+04
    7.883583984375D+03-2.446664810181D+00-9.313225746155D-10 0.000000000000D+00
    1.395642773438D+04-1.184977531433D+00-0.000000000000D+00-2.000000000000D+00
    1.983509326172D+04 1.805116653442D+00-2.793967723846D-09 0.000000000000D+00
22 21  9 18 15 15  0.0-1.339344307780D-04-2.728484105319D-12 5.400000000000D+04
   -2.129926220703D+04 1.397764205933D+00 0.000000000000D+00 0.000000000000D+00
    8.328722167969D+03-6.830701828003D-01 2.793967723846D-09-3.000000000000D+00
    1.119170556641D+04 3.171526908875D+00-1.862645149231D-09 0.000000000000D+00
23 21  9 18 15 15  0.0-1.367088407278D-05-0.000000000000D+00 5.400000000000D+04
   -1.657781884766D+04-1.014907836914D+00-9.313225746155D-10 0.000000000000D+00
    1.658933349609D+04 9.577426910400D-01 5.587935447693D-09 3.000000000000D+00
   -1.005189501953D+04 3.256539344788D+00-0.000000000000D+00 0.000000000000D+00
24 21  9 18 15 15  0.0 5.915295332670D-05 1.818989403546D-12 5.400000000000D+04
   -4.737520019531D+03-2.268661499023D+00-1.862645149231D-09 0.000000000000D+00
    1.462872363281D+04 1.625586509705D+00 4.656612873077D-09 2.000000000000D+00
   -2.034590429688D+04 1.693552017212D+00 9.313225746155D-10 0.000000000000D+00
 1 21  9 18 15 45  0.0 8.547585457563D-05 0.000000000000D+00 5.580000000000D+04
   -7.170046875000D+03-6.101770401001D-01-0.000000000000D+00 0.000000000000D+00
    1.291523486328D+04-2.780624389648D+00 4.656612873077D-09 1.000000000000D+00
   -2.080348339844D+04-1.515233039856D+00 9.313225746155D-10 0.000000000000D+00
 2 21  9 18 15 45  0.0 4.937425255775D-04 0.000000000000D+00 5.580000000000D+04
    2.915391601562D+03 2.022647857666D-02-1.862645149231D-09 0.000000000000D+00
    2.481912402344D+04-6.989936828613D-01 4.656612873077D-09-4.000000000000D+00
   -4.914640625000D+03-3.498112678528D+00-9.313225746155D-10 0.000000000000D+00
 3 21  9 18 15 45  0.0 4.319846630096D-05 0.000000000000D+00 5.580000000000D+04
    1.032931298828D+04 4.932975769043D-01-1.862645149231D-09 0.000000000000D+00
    1.981319042969D+04 1.609928131104D+00 1.862645149231D-09 5.000000000000D+00
    1.229002294922D+04-3.024153709412D+00-2.793967723846D-09 0.000000000000D+00
23 21  9 18 15 45  0.0-1.367274671793D-05-0.000000000000D+00 5.580000000000D+04
   -1.769009033203D+04-2.331447601318D-01 0.000000000000D+00 0.000000000000D+00
    1.797231884766D+04 5.367918014526D-01 5.587935447693D-09 3.000000000000D+00
   -3.877495117188D+03 3.559401512146D+00-9.313225746155D-10 0.000000000000D+00
24 21  9 18 15 45  0.0 5.915574729443D-05 1.818989403546D-12 5.580000000000D+04
   -8.252074218750D+03-1.617956161499D+00-0.000000000000D+00 0.000000000000D+00
    1.756875830078D+04 1.596086502075D+00 5.587935447693D-09 2.000000000000D+00
   -1.655011035156D+04 2.496537208557D+00 0.000000000000D+00 0.000000000000D+00
